[{"OBJECT_NAME":"JILIN-1 07","OBJECT_ID":"2018-008E","EPOCH":"2026-03-09T22:24:26.445888","MEAN_MOTION":15.32987507,"ECCENTRICITY":0.00101791,"INCLINATION":97.1876,"RA_OF_ASC_NODE":91.5817,"ARG_OF_PERICENTER":62.7832,"MEAN_ANOMALY":297.4447,"EPHEMERIS_TYPE":0,"CLASSIFICATION_TYPE":"U","NORAD_CAT_ID":43159,"ELEMENT_SET_NO":999,"REV_AT_EPOCH":44978,"BSTAR":0.00036439521,"MEAN_MOTION_DOT":0.00011559,"MEAN_MOTION_DDOT":0},{"OBJECT_NAME":"STARLINK-35905","OBJECT_ID":"2025-294U","EPOCH":"2026-03-08T06:51:18.343008","MEAN_MOTION":15.27561392,"ECCENTRICITY":0.00010914,"INCLINATION":43.0005,"RA_OF_ASC_NODE":46.0731,"ARG_OF_PERICENTER":271.0703,"MEAN_ANOMALY":89.0024,"EPHEMERIS_TYPE":0,"CLASSIFICATION_TYPE":"U","NORAD_CAT_ID":67048,"ELEMENT_SET_NO":999,"REV_AT_EPOCH":1458,"BSTAR":0.001640366,"MEAN_MOTION_DOT":0.00045128,"MEAN_MOTION_DDOT":0}]
